NAVSTAR 48 (USA 151)    
1 26407U 00040A   26199.21470377  .00000042  00000+0  00000+0 0  9995
2 26407  54.8482 213.9297 0120433 302.7808  63.9034  2.00557914190576
NAVSTAR 51 (USA 166)    
1 27663U 03005A   26199.03281471  .00000041  00000+0  00000+0 0  9998
2 27663  54.8786 213.7432 0148342  53.1791 318.3860  2.00558906171939
NAVSTAR 54 (USA 177)    
1 28190U 04009A   26199.04775637 -.00000043  00000+0  00000+0 0  9995
2 28190  54.8042 274.4390 0117273 174.4706   0.3702  2.00553639163560
NAVSTAR 56 (USA 180)    
1 28474U 04045A   26198.67621534 -.00000098  00000+0  00000+0 0  9994
2 28474  55.1165 323.6683 0170225 317.1195  14.5735  2.00557200159039
NAVSTAR 57 (USA 183)    
1 28874U 05038A   26199.24654649 -.00000041  00000+0  00000+0 0  9996
2 28874  54.8531 271.9225 0128265 296.4514  51.7295  2.00563533152453
INMARSAT 4-F2           
1 28899U 05044A   26199.29433454 -.00000270  00000+0  00000+0 0  9998
2 28899   5.1351  43.6771 0002846  60.3453  81.5294  1.00271379 75834
NAVSTAR 58 (USA 190)    
1 29486U 06042A   26198.64108806  .00000029  00000+0  00000+0 0  9999
2 29486  54.7130 150.1299 0107253  55.2250 114.7718  2.00568097145001
NAVSTAR 59 (USA 192)    
1 29601U 06052A   26198.83231985  .00000041  00000+0  00000+0 0  9999
2 29601  54.9321 212.7914 0084750  91.0020 269.9972  2.00559859144024
NAVSTAR 60 (USA 196)    
1 32260U 07047A   26198.63952050 -.00000042  00000+0  00000+0 0  9992
2 32260  54.1176  78.8104 0167868  88.0458 273.9388  2.00553829137427
COSMOS 2433 [GLONASS-M] 
1 32275U 07052A   26197.94812885 -.00000066  00000+0  00000+0 0  9994
2 32275  65.5585 314.9323 0003584 203.6776 156.3207  2.13104076145694
COSMOS 2432 [GLONASS-M] 
1 32276U 07052B   26198.99356594 -.00000071  00000+0  00000+0 0  9997
2 32276  65.5737 315.0256 0007385 321.4557  64.3372  2.13103034145740
NAVSTAR 61 (USA 199)    
1 32384U 07062A   26198.49979303 -.00000036  00000+0  00000+0 0  9993
2 32384  55.0077 272.9327 0036067 167.6696 219.4821  2.00561741136127
COSMOS 2434 [GLONASS-M] 
1 32393U 07065A   26199.26296105  .00000062  00000+0  00000+0 0  9992
2 32393  64.3201 190.8676 0001249 326.8102 211.5712  2.13101161144434
COSMOS 2436 [GLONASS-M] 
1 32395U 07065C   26199.28849456  .00000063  00000+0  00000+0 0  9990
2 32395  64.3288 190.9392 0017313 353.5645 336.5835  2.13099948144382
NAVSTAR 62 (USA 201)    
1 32711U 08012A   26199.04649594  .00000031  00000+0  00000+0 0  9995
2 32711  54.5003 148.6919 0211705 248.1782 109.5290  2.00573231134376
NAVSTAR 64 (USA 206)    
1 35752U 09043A   26199.00671911 -.00000088  00000+0  00000+0 0  9995
2 35752  56.2296  26.2424 0053695  84.5115 254.1469  2.00552628123979
COSMOS 2456 [GLONASS-M] 
1 36111U 09070A   26197.17812943 -.00000016  00000+0  00000+0 0  9994
2 36111  65.0282  69.9837 0003619 341.3386 195.9451  2.13103565129042
COSMOS 2457 [GLONASS-M] 
1 36112U 09070B   26197.06975485 -.00000016  00000+0  00000+0 0  9994
2 36112  65.0138  69.8308 0004103 121.4707  99.8167  2.13101089129043
COSMOS 2460 [GLONASS-M] 
1 36402U 10007C   26198.88638964 -.00000069  00000+0  00000+0 0  9995
2 36402  65.4010 313.4281 0001854 147.0990  29.7910  2.13101453127382
NAVSTAR 65 (USA 213)    
1 36585U 10022A   26199.30925148  .00000046  00000+0  00000+0 0  9999
2 36585  54.2683 207.3083 0126802  66.1577 250.9534  2.00563936118216
BEIDOU-2 IGSO-1         
1 36828U 10036A   26198.83967113 -.00000112  00000+0  00000+0 0  9994
2 36828  54.3070 162.6827 0058852 225.1686 317.0611  1.00263080 58404
BEIDOU-2 G4             
1 37210U 10057A   26198.79862765 -.00000123  00000+0  00000+0 0  9997
2 37210   3.7213  68.7538 0005592 185.6452 128.6416  1.00272566 57593
BEIDOU-2 IGSO-2         
1 37256U 10068A   26198.92294310 -.00000202  00000+0  00000+0 0  9997
2 37256  47.4899 271.4483 0056956 213.9138 250.9288  1.00272861 57107
BEIDOU-2 IGSO-3         
1 37384U 11013A   26198.92086542 -.00000173  00000+0  00000+0 0  9993
2 37384  62.4498  39.8607 0035458 183.4333 150.2767  1.00260211 55969
GSAT-8                  
1 37605U 11022A   26198.99468718  .00000075  00000+0  00000+0 0  9995
2 37605   2.2089  81.4461 0002527 157.8874 109.6442  1.00271383 53520
BEIDOU-2 IGSO-4         
1 37763U 11038A   26198.88443079 -.00000032  00000+0  00000+0 0  9992
2 37763  54.6049 165.3996 0160314 231.4873 311.5627  1.00279354 54957
GSAT0101 (GALILEO-PFM)  
1 37846U 11060A   26196.59103932 -.00000101  00000+0  00000+0 0  9993
2 37846  56.9841 340.9916 0002223  61.9424 298.0655  1.70475567 91603
GSAT0102 (GALILEO-FM2)  
1 37847U 11060B   26196.51364557 -.00000101  00000+0  00000+0 0  9998
2 37847  56.9849 340.9943 0002108   7.4765 350.6813  1.70475846 91608
COSMOS 2476 [GLONASS-M] 
1 37867U 11064A   26199.17433977 -.00000032  00000+0  00000+0 0  9995
2 37867  65.2874  71.8256 0022067 235.6441 301.3919  2.13103618114429
COSMOS 2477 [GLONASS-M] 
1 37868U 11064B   26196.15395625 -.00000010  00000+0  00000+0 0  9994
2 37868  65.2921  72.0075 0019117 236.8947 323.2552  2.13102912114355
COSMOS 2475 [GLONASS-M] 
1 37869U 11064C   26198.80033905 -.00000028  00000+0  00000+0 0  9998
2 37869  65.3005  71.9400 0024690 250.9775 134.3774  2.13101626114424
